{
"type": "FeatureCollection",
"name": "lines",
"crs": { "type": "name", "properties": { "name": "urn:ogc:def:crs:OGC:1.3:CRS84" } },
"features": [
{"type":"Feature","properties":{"osm_id":"4910348","name":"La Salle Street","highway":"residential","z_order":3,"other_tags":"\"bicycle\"=>\"yes\",\"lanes\"=>\"2\",\"lit\"=>\"yes\",\"oneway\"=>\"yes\",\"postal_code\"=>\"1102\",\"surface\"=>\"concrete\""},"geometry":{"type":"LineString","coordinates":[[121.0594875,14.6260942],[121.0590415,14.6269892],[121.0583988,14.6282818]]}},
{"type":"Feature","properties":{"osm_id":"4910349","name":"Illinois Street","highway":"residential","z_order":3,"other_tags":"\"bicycle\"=>\"yes\",\"lanes\"=>\"2\",\"postal_code\"=>\"1102\""},"geometry":{"type":"LineString","coordinates":[[121.0599656,14.6267434],[121.059067,14.6284321]]}},
{"type":"Feature","properties":{"osm_id":"4910350","name":"Pittsburgh Street","highway":"residential","z_order":3,"other_tags":"\"lanes\"=>\"2\",\"postal_code\"=>\"1102\",\"surface\"=>\"concrete\""},"geometry":{"type":"LineString","coordinates":[[121.0607084,14.6267164],[121.0597286,14.6286441]]}},
{"type":"Feature","properties":{"osm_id":"4910353","name":"Potsdam Street","highway":"tertiary","z_order":4,"other_tags":"\"designation\"=>\"barangay_road\",\"lane_markings\"=>\"yes\",\"lanes\"=>\"2\",\"lit\"=>\"yes\",\"maxspeed\"=>\"20\",\"maxspeed:type\"=>\"PH:urban\",\"oneway\"=>\"yes\",\"postal_code\"=>\"1102\",\"sidewalk\"=>\"both\",\"surface\"=>\"concrete\""},"geometry":{"type":"LineString","coordinates":[[121.0603839,14.628908],[121.0613199,14.6270084]]}},
{"type":"Feature","properties":{"osm_id":"5020040","name":"Aurora Boulevard","highway":"primary","z_order":7,"other_tags":"\"cycleway:right\"=>\"lane\",\"lanes\"=>\"2\",\"lit\"=>\"yes\",\"maxspeed\"=>\"60\",\"maxspeed:bus\"=>\"50\",\"maxspeed:hgv\"=>\"50\",\"oneway\"=>\"yes\",\"ref\"=>\"59\",\"sidewalk:right\"=>\"yes\",\"source:maxspeed\"=>\"sign\",\"surface\"=>\"asphalt\",\"wikidata\"=>\"Q4822499\""},"geometry":{"type":"LineString","coordinates":[[121.0635545,14.6277691],[121.0640374,14.6278498],[121.0641879,14.6278749],[121.0650935,14.6280297],[121.0656267,14.6281114],[121.0664777,14.6282469],[121.0668325,14.6283018],[121.0670844,14.6283574],[121.0673507,14.6284441],[121.0675188,14.6285054],[121.0675922,14.6285327],[121.0677246,14.6285906],[121.0677709,14.6286114],[121.0679417,14.6286865],[121.0679954,14.6287148],[121.0681005,14.6287607],[121.068304,14.6288509],[121.0684136,14.6288994],[121.0685024,14.6289426],[121.06856,14.6289714],[121.0689149,14.6291319],[121.0692971,14.6293081]]}},
{"type":"Feature","properties":{"osm_id":"8037796","name":"A. Luna Street","highway":"residential","z_order":3,"other_tags":"\"name:abbr\"=>\"A. Luna\",\"postal_code\"=>\"1109\""},"geometry":{"type":"LineString","coordinates":[[121.0656804,14.6260174],[121.0656119,14.6260628],[121.0655374,14.6261078],[121.0654362,14.6261585],[121.0653345,14.6262098],[121.0651954,14.6262597],[121.0650687,14.6262901],[121.0648363,14.6263162],[121.0635169,14.6263824]]}},
{"type":"Feature","properties":{"osm_id":"8037798","name":"F. Castillo Street","highway":"residential","z_order":3,"other_tags":"\"postal_code\"=>\"1109\""},"geometry":{"type":"LineString","coordinates":[[121.0656804,14.6260174],[121.0656324,14.6259617],[121.0652856,14.6255964],[121.0650093,14.62533],[121.0649123,14.6252225]]}},
{"type":"Feature","properties":{"osm_id":"8037801","name":"J. Bugallon Street","highway":"residential","z_order":3,"other_tags":"\"alt_name\"=>\"J. Bongallon Street\",\"lanes\"=>\"1\",\"postal_code\"=>\"1109\""},"geometry":{"type":"LineString","coordinates":[[121.0652856,14.6255964],[121.065193,14.6256673],[121.065102,14.625721],[121.0649698,14.6257709],[121.0648731,14.625786],[121.0646416,14.6258022],[121.0644384,14.6258083],[121.0642842,14.6258142],[121.0641508,14.6258174],[121.0639427,14.6258255],[121.0638283,14.6258287],[121.0634798,14.6258419]]}},
{"type":"Feature","properties":{"osm_id":"8037803","name":"Miguel Malvar","highway":"residential","z_order":3,"other_tags":"\"name:abbr\"=>\"M. Malvar;Malvar\",\"postal_code\"=>\"1109\""},"geometry":{"type":"LineString","coordinates":[[121.0634625,14.6252931],[121.0637816,14.6252778],[121.0639306,14.6252759],[121.0642283,14.6252667],[121.0643114,14.6252622],[121.0645364,14.6252554],[121.0648488,14.625245],[121.0649123,14.6252225],[121.06495,14.6251384],[121.0653139,14.6246484],[121.0655734,14.6243533],[121.0657819,14.6240972],[121.065913,14.6239362],[121.0660196,14.6238002],[121.0662065,14.6235296],[121.066233,14.6234927],[121.0662575,14.623464],[121.066264,14.6233554],[121.0662611,14.6231488]]}},
{"type":"Feature","properties":{"osm_id":"8038065","name":"21st Avenue","highway":"residential","z_order":3,"other_tags":"\"lanes\"=>\"2\",\"lit\"=>\"yes\",\"postal_code\"=>\"1109\",\"sidewalk\"=>\"both\",\"surface\"=>\"concrete\""},"geometry":{"type":"LineString","coordinates":[[121.0639777,14.6215778],[121.0634833,14.6225799],[121.0631974,14.6231782],[121.0631296,14.6233182],[121.0631065,14.6233785],[121.0630702,14.6234732],[121.0630533,14.6236251],[121.0630739,14.6237559],[121.063123,14.6238904],[121.0632162,14.6240227],[121.0633438,14.6241447],[121.0635885,14.6243157]]}},
{"type":"Feature","properties":{"osm_id":"8038295","name":"20th Avenue","highway":"secondary","z_order":6,"other_tags":"\"designation\"=>\"national_tertiary_road\",\"lanes\"=>\"4\",\"lit\"=>\"yes\",\"maxspeed\"=>\"40\",\"maxspeed:type\"=>\"PH:urban\",\"postal_code\"=>\"1109\""},"geometry":{"type":"LineString","coordinates":[[121.0603954,14.6265444],[121.0604137,14.6265158]]}},
{"type":"Feature","properties":{"osm_id":"22918797","name":"E. Evangelista Street","highway":"residential","z_order":3,"other_tags":"\"postal_code\"=>\"1109\""},"geometry":{"type":"LineString","coordinates":[[121.063527,14.6265457],[121.0635169,14.6263824],[121.0634798,14.6258419],[121.0634639,14.6253367],[121.0634625,14.6252931],[121.0634332,14.625048],[121.0634422,14.6248851],[121.0634763,14.6247886],[121.0635347,14.6247084],[121.0636285,14.6245862],[121.0637336,14.6244166]]}},
{"type":"Feature","properties":{"osm_id":"46423463","name":"Kalantiaw Extension Street","highway":"residential","z_order":3,"other_tags":"\"alt_name\"=>\"Kalantiao;Kalantiaw;Kalantiyaw\",\"postal_code\"=>\"1109\""},"geometry":{"type":"LineString","coordinates":[[121.0640983,14.6246661],[121.0640426,14.6248008],[121.0639688,14.6249266],[121.0638259,14.6251242],[121.0637816,14.6252778]]}},
{"type":"Feature","properties":{"osm_id":"46423472","name":"F. Castillo Extension","highway":"residential","z_order":3},"geometry":{"type":"LineString","coordinates":[[121.06495,14.6251384],[121.0645504,14.6248815],[121.0643542,14.6247564],[121.0640983,14.6246661]]}},
{"type":"Feature","properties":{"osm_id":"46423473","name":"Kalantiaw Extension Street","highway":"residential","z_order":3,"other_tags":"\"alt_name\"=>\"Kalantiao;Kalantiaw;Kalantiyaw\""},"geometry":{"type":"LineString","coordinates":[[121.0643584,14.6241186],[121.0640983,14.6246661]]}},
{"type":"Feature","properties":{"osm_id":"46423474","name":"Miguel Malvar Extension","highway":"residential","z_order":3,"other_tags":"\"name:abbr\"=>\"M. Malvar Ext.;Malvar Ext.\",\"postal_code\"=>\"1109\""},"geometry":{"type":"LineString","coordinates":[[121.0643584,14.6241186],[121.0645829,14.6242138],[121.0649163,14.6243552],[121.0649259,14.6243593],[121.0653139,14.6246484]]}},
{"type":"Feature","properties":{"osm_id":"46423475","name":"Kalantiaw Extension Street","highway":"residential","z_order":3,"other_tags":"\"alt_name\"=>\"Kalantiao;Kalantiaw;Kalantiyaw\",\"oneway\"=>\"yes\",\"postal_code\"=>\"1109\""},"geometry":{"type":"LineString","coordinates":[[121.0647581,14.6231891],[121.0645638,14.6236578],[121.0643584,14.6241186]]}},
{"type":"Feature","properties":{"osm_id":"46634338","highway":"footway","z_order":0,"other_tags":"\"motorcar\"=>\"no\""},"geometry":{"type":"LineString","coordinates":[[121.0658539,14.6262703],[121.0656939,14.6263521],[121.0655495,14.6264489],[121.0653658,14.6265481],[121.065215,14.6265992],[121.065047,14.6266257],[121.0636556,14.6266695]]}},
{"type":"Feature","properties":{"osm_id":"46639612","name":"21st Avenue","highway":"residential","z_order":23,"other_tags":"\"bridge\"=>\"yes\",\"lanes\"=>\"2\",\"layer\"=>\"1\",\"postal_code\"=>\"1109\",\"surface\"=>\"concrete\""},"geometry":{"type":"LineString","coordinates":[[121.0635885,14.6243157],[121.0636571,14.6243604]]}},
{"type":"Feature","properties":{"osm_id":"46639613","name":"21st Avenue","highway":"residential","z_order":3,"other_tags":"\"lanes\"=>\"2\",\"postal_code\"=>\"1109\",\"surface\"=>\"concrete\""},"geometry":{"type":"LineString","coordinates":[[121.0636571,14.6243604],[121.0637336,14.6244166]]}},
{"type":"Feature","properties":{"osm_id":"46648137","name":"20th Avenue","highway":"secondary","z_order":6,"other_tags":"\"bicycle\"=>\"yes\",\"designation\"=>\"national_tertiary_road\",\"lane_markings\"=>\"yes\",\"lanes\"=>\"4\",\"lit\"=>\"yes\",\"maxspeed\"=>\"40\",\"maxspeed:type\"=>\"PH:urban\",\"postal_code\"=>\"1109\",\"sidewalk\"=>\"both\",\"surface\"=>\"concrete\""},"geometry":{"type":"LineString","coordinates":[[121.0604418,14.6264571],[121.06046,14.6264257],[121.0606584,14.6260307],[121.0606983,14.6259485],[121.0608864,14.6255653],[121.060946,14.6254355],[121.0609923,14.625335],[121.0610599,14.6251929],[121.0610854,14.625144],[121.061122,14.6250716],[121.0613094,14.6246841],[121.0614265,14.6244375],[121.0615695,14.6241366],[121.0615879,14.6240986],[121.061609,14.6240535]]}},
{"type":"Feature","properties":{"osm_id":"54979512","highway":"service","z_order":0,"other_tags":"\"access\"=>\"destination\",\"lanes\"=>\"1\",\"service\"=>\"driveway\""},"geometry":{"type":"LineString","coordinates":[[121.0644384,14.6258083],[121.0644343,14.6257511],[121.0644422,14.6257364],[121.0644575,14.6257279],[121.0645516,14.6257228],[121.0646131,14.625721],[121.064634,14.6257299],[121.0646412,14.6257469],[121.0646416,14.6258022],[121.064644,14.6259063],[121.0646394,14.6259245],[121.0646243,14.6259372],[121.06447,14.6259428],[121.064455,14.6259356],[121.0644447,14.6259203],[121.0644384,14.6258083]]}},
{"type":"Feature","properties":{"osm_id":"54979515","highway":"footway","z_order":0},"geometry":{"type":"LineString","coordinates":[[121.0642842,14.6258142],[121.0641968,14.6256242]]}},
{"type":"Feature","properties":{"osm_id":"54979516","highway":"footway","z_order":0},"geometry":{"type":"LineString","coordinates":[[121.0641508,14.6258174],[121.0642295,14.6259732]]}},
{"type":"Feature","properties":{"osm_id":"54979517","highway":"footway","z_order":0},"geometry":{"type":"LineString","coordinates":[[121.0639427,14.6258255],[121.0638628,14.6256656]]}},
{"type":"Feature","properties":{"osm_id":"54979518","highway":"footway","z_order":0},"geometry":{"type":"LineString","coordinates":[[121.0638283,14.6258287],[121.0638876,14.6259758]]}},
{"type":"Feature","properties":{"osm_id":"54979519","highway":"footway","z_order":0},"geometry":{"type":"LineString","coordinates":[[121.0645516,14.6257228],[121.0645364,14.6252554]]}},
{"type":"Feature","properties":{"osm_id":"54979521","highway":"footway","z_order":0},"geometry":{"type":"LineString","coordinates":[[121.0642283,14.6252667],[121.0641579,14.6254793]]}},
{"type":"Feature","properties":{"osm_id":"54979528","highway":"footway","z_order":0},"geometry":{"type":"LineString","coordinates":[[121.0639306,14.6252759],[121.0638494,14.6254955]]}},
{"type":"Feature","properties":{"osm_id":"110647754","name":"Ermin Garcia Street","highway":"tertiary","z_order":4,"other_tags":"\"designation\"=>\"national_tertiary_road\",\"lanes\"=>\"2\",\"lit\"=>\"yes\",\"maxspeed\"=>\"40\",\"maxspeed:type\"=>\"PH:urban\",\"name:etymology\"=>\"Ermin Erfe Garcia\",\"name:etymology:wikidata\"=>\"Q20119953\",\"old_name\"=>\"Minnesota Avenue\",\"oneway\"=>\"yes\",\"postal_code\"=>\"1102\",\"surface\"=>\"asphalt\""},"geometry":{"type":"LineString","coordinates":[[121.0620623,14.6273771],[121.0620431,14.6274153],[121.0618872,14.6278816],[121.0618288,14.6280281],[121.0616967,14.6282603],[121.0615634,14.6284576],[121.0614316,14.6286128],[121.0612809,14.6287463],[121.0610251,14.6288755],[121.0609602,14.6288965],[121.0608924,14.6289185],[121.0607543,14.6289239],[121.0606121,14.6289178],[121.0603839,14.628908]]}},
{"type":"Feature","properties":{"osm_id":"422195582","highway":"footway","z_order":20,"other_tags":"\"bridge\"=>\"yes\",\"layer\"=>\"1\",\"lit\"=>\"yes\",\"mapillary\"=>\"595889734704092\""},"geometry":{"type":"LineString","coordinates":[[121.0639906,14.6277642],[121.063953,14.6279823]]}},
{"type":"Feature","properties":{"osm_id":"422195583","highway":"steps","z_order":0},"geometry":{"type":"LineString","coordinates":[[121.0639906,14.6277642],[121.0640463,14.6277772]]}},
{"type":"Feature","properties":{"osm_id":"422195585","highway":"steps","z_order":0},"geometry":{"type":"LineString","coordinates":[[121.0638183,14.6279614],[121.063953,14.6279823]]}},
{"type":"Feature","properties":{"osm_id":"433263052","highway":"footway","z_order":0},"geometry":{"type":"LineString","coordinates":[[121.0638183,14.6279614],[121.0638279,14.627904]]}},
{"type":"Feature","properties":{"osm_id":"433263185","highway":"footway","z_order":0},"geometry":{"type":"LineString","coordinates":[[121.0640463,14.6277772],[121.0640374,14.6278498]]}},
{"type":"Feature","properties":{"osm_id":"551557641","highway":"service","z_order":0,"other_tags":"\"access\"=>\"private\""},"geometry":{"type":"LineString","coordinates":[[121.0604497,14.6248672],[121.0604871,14.6247916]]}},
{"type":"Feature","properties":{"osm_id":"558107194","highway":"service","z_order":0,"other_tags":"\"access\"=>\"private\",\"oneway\"=>\"yes\""},"geometry":{"type":"LineString","coordinates":[[121.0604871,14.6247916],[121.0606046,14.6248472]]}},
{"type":"Feature","properties":{"osm_id":"568852428","highway":"service","z_order":0,"other_tags":"\"covered\"=>\"yes\",\"service\"=>\"driveway\""},"geometry":{"type":"LineString","coordinates":[[121.0614369,14.6267845],[121.0615204,14.626618]]}},
{"type":"Feature","properties":{"osm_id":"568852429","highway":"service","z_order":0,"other_tags":"\"service\"=>\"driveway\""},"geometry":{"type":"LineString","coordinates":[[121.0613666,14.6269233],[121.0614044,14.6268451]]}},
{"type":"Feature","properties":{"osm_id":"568852430","highway":"service","z_order":0,"other_tags":"\"smoothness\"=>\"good\",\"surface\"=>\"concrete\""},"geometry":{"type":"LineString","coordinates":[[121.0626002,14.6259159],[121.0626344,14.6258272]]}},
{"type":"Feature","properties":{"osm_id":"568852431","highway":"service","z_order":0,"other_tags":"\"covered\"=>\"yes\",\"maxheight\"=>\"3.7\",\"maxheight:signed\"=>\"no\",\"smoothness\"=>\"good\",\"source:maxheight\"=>\"ARCore\",\"surface\"=>\"concrete\""},"geometry":{"type":"LineString","coordinates":[[121.0625707,14.6259759],[121.0626002,14.6259159]]}},
{"type":"Feature","properties":{"osm_id":"568852432","highway":"service","z_order":0,"other_tags":"\"smoothness\"=>\"good\",\"surface\"=>\"concrete\""},"geometry":{"type":"LineString","coordinates":[[121.0618365,14.626003],[121.0623367,14.6262451],[121.0623743,14.6262503],[121.0624185,14.6262528],[121.0624628,14.6262269],[121.0625707,14.6259759]]}},
{"type":"Feature","properties":{"osm_id":"568852433","highway":"service","z_order":0,"other_tags":"\"smoothness\"=>\"excellent\",\"surface\"=>\"concrete\""},"geometry":{"type":"LineString","coordinates":[[121.0615204,14.626618],[121.0618365,14.626003],[121.0620658,14.6255158],[121.0620986,14.6254969],[121.0621429,14.6255041],[121.0626153,14.6257422],[121.0626247,14.6257568],[121.0626294,14.625776],[121.0626344,14.6258272]]}},
{"type":"Feature","properties":{"osm_id":"708785731","highway":"service","z_order":0,"other_tags":"\"service\"=>\"parking_aisle\""},"geometry":{"type":"LineString","coordinates":[[121.0640998,14.6269813],[121.0646806,14.6269204]]}},
{"type":"Feature","properties":{"osm_id":"708785732","highway":"service","z_order":0},"geometry":{"type":"LineString","coordinates":[[121.0640998,14.6269813],[121.0640875,14.6268504],[121.0640926,14.626833],[121.064113,14.6268283],[121.064634,14.626794],[121.0646628,14.6267949],[121.0646739,14.6267988],[121.0646793,14.6268076],[121.064681,14.6268241],[121.0646806,14.6269204]]}},
{"type":"Feature","properties":{"osm_id":"732001725","highway":"service","z_order":0,"other_tags":"\"access\"=>\"destination\",\"oneway\"=>\"yes\""},"geometry":{"type":"LineString","coordinates":[[121.0606672,14.6249674],[121.0605719,14.6249235]]}},
{"type":"Feature","properties":{"osm_id":"732001726","highway":"service","z_order":0,"other_tags":"\"access\"=>\"permissive\",\"oneway\"=>\"yes\""},"geometry":{"type":"LineString","coordinates":[[121.0610854,14.625144],[121.0606672,14.6249674],[121.0607047,14.6248946],[121.061122,14.6250716]]}},
{"type":"Feature","properties":{"osm_id":"786448563","highway":"service","z_order":0,"other_tags":"\"access\"=>\"destination\",\"oneway\"=>\"yes\",\"service\"=>\"driveway\""},"geometry":{"type":"LineString","coordinates":[[121.0610599,14.6251929],[121.060643,14.6250129]]}},
{"type":"Feature","properties":{"osm_id":"786448565","highway":"service","z_order":0,"other_tags":"\"access\"=>\"destination\",\"oneway\"=>\"no\",\"service\"=>\"driveway\""},"geometry":{"type":"LineString","coordinates":[[121.0606672,14.6249674],[121.060643,14.6250129]]}},
{"type":"Feature","properties":{"osm_id":"802750685","highway":"footway","z_order":0,"other_tags":"\"footway\"=>\"crossing\",\"mapillary\"=>\"283500786787992\",\"noname\"=>\"yes\""},"geometry":{"type":"LineString","coordinates":[[121.0619753,14.6273824],[121.0620431,14.6274153]]}},
{"type":"Feature","properties":{"osm_id":"802750686","highway":"footway","z_order":0,"other_tags":"\"footway\"=>\"crossing\",\"mapillary\"=>\"1703355009865684\",\"noname\"=>\"yes\""},"geometry":{"type":"LineString","coordinates":[[121.0620442,14.6272485],[121.0619928,14.6273436],[121.0619753,14.6273824]]}},
{"type":"Feature","properties":{"osm_id":"802750687","highway":"footway","z_order":0,"other_tags":"\"footway\"=>\"crossing\",\"mapillary\"=>\"302733971566427\",\"noname\"=>\"yes\""},"geometry":{"type":"LineString","coordinates":[[121.0604575,14.6265776],[121.0605036,14.6264871],[121.0605177,14.6264584],[121.06046,14.6264257]]}},
{"type":"Feature","properties":{"osm_id":"816827201","name":"Aurora Boulevard","highway":"primary","z_order":7,"other_tags":"\"cycleway:right\"=>\"lane\",\"lane_markings\"=>\"yes\",\"lanes\"=>\"2\",\"lit\"=>\"yes\",\"maxspeed\"=>\"60\",\"maxspeed:bus\"=>\"50\",\"maxspeed:hgv\"=>\"50\",\"oneway\"=>\"yes\",\"ref\"=>\"59\",\"source:maxspeed\"=>\"sign\",\"surface\"=>\"asphalt\",\"wikidata\"=>\"Q4822499\""},"geometry":{"type":"LineString","coordinates":[[121.0601383,14.6264189],[121.0594875,14.6260942],[121.0588955,14.6258033],[121.0583217,14.6255088]]}},
{"type":"Feature","properties":{"osm_id":"883266549","name":"Anonas Street","highway":"secondary","z_order":6,"other_tags":"\"designation\"=>\"city_road\",\"foot\"=>\"no\",\"lane_markings\"=>\"yes\",\"lanes\"=>\"2\",\"lit\"=>\"yes\",\"maxspeed\"=>\"30\",\"oneway\"=>\"yes\",\"postal_code\"=>\"1102\",\"surface\"=>\"asphalt\""},"geometry":{"type":"LineString","coordinates":[[121.0632222,14.6277985],[121.0632396,14.6277159]]}},
{"type":"Feature","properties":{"osm_id":"883266550","name":"Aurora Boulevard","highway":"primary","z_order":7,"other_tags":"\"cycleway:right\"=>\"lane\",\"lane_markings\"=>\"yes\",\"lanes\"=>\"2\",\"lit\"=>\"yes\",\"maxspeed\"=>\"60\",\"maxspeed:bus\"=>\"50\",\"maxspeed:hgv\"=>\"50\",\"oneway\"=>\"yes\",\"ref\"=>\"59\",\"sidewalk\"=>\"right\",\"source:maxspeed\"=>\"sign\",\"surface\"=>\"asphalt\",\"wikidata\"=>\"Q4822499\""},"geometry":{"type":"LineString","coordinates":[[121.062534,14.6275838],[121.0624972,14.6275675],[121.0623588,14.627506],[121.0620623,14.6273771],[121.0619928,14.6273436],[121.0614077,14.6270521],[121.0613199,14.6270084],[121.0611995,14.6269517],[121.0607084,14.6267164],[121.0604575,14.6265776],[121.0603954,14.6265444]]}},
{"type":"Feature","properties":{"osm_id":"883266551","name":"Aurora Boulevard","highway":"primary","z_order":7,"other_tags":"\"cycleway:right\"=>\"lane\",\"lane_markings\"=>\"yes\",\"lanes\"=>\"2\",\"lit\"=>\"yes\",\"maxspeed\"=>\"60\",\"maxspeed:bus\"=>\"50\",\"maxspeed:hgv\"=>\"50\",\"oneway\"=>\"yes\",\"ref\"=>\"59\",\"sidewalk\"=>\"right\",\"source:maxspeed\"=>\"sign\",\"surface\"=>\"asphalt\",\"wikidata\"=>\"Q4822499\""},"geometry":{"type":"LineString","coordinates":[[121.0604418,14.6264571],[121.0605036,14.6264871],[121.0605115,14.6264905],[121.0608529,14.6266587],[121.0612432,14.6268597],[121.0613666,14.6269233],[121.0614448,14.6269592],[121.0615173,14.6269954],[121.0620442,14.6272485],[121.0621187,14.6272812],[121.0623639,14.6274017],[121.0624073,14.6274199],[121.0625685,14.6275003]]}},
{"type":"Feature","properties":{"osm_id":"894893780","highway":"service","z_order":0,"other_tags":"\"access\"=>\"destination\",\"service\"=>\"driveway\""},"geometry":{"type":"LineString","coordinates":[[121.0624073,14.6274199],[121.0626049,14.6270302],[121.0627645,14.6267219]]}},
{"type":"Feature","properties":{"osm_id":"894895211","highway":"service","z_order":0,"other_tags":"\"oneway\"=>\"yes\""},"geometry":{"type":"LineString","coordinates":[[121.0635545,14.6277691],[121.0635146,14.627484],[121.0634981,14.6273662],[121.0634927,14.6273403],[121.063482,14.6273234],[121.0634632,14.6273143],[121.0634391,14.6273104],[121.0632567,14.6273403],[121.0628785,14.6274259],[121.0628195,14.6274648],[121.0627342,14.6275618]]}},
{"type":"Feature","properties":{"osm_id":"894899779","highway":"service","z_order":0,"other_tags":"\"access\"=>\"private\",\"service\"=>\"driveway\""},"geometry":{"type":"LineString","coordinates":[[121.0625352,14.6244725],[121.0617506,14.623969]]}},
{"type":"Feature","properties":{"osm_id":"894900911","highway":"service","z_order":0,"other_tags":"\"access\"=>\"private\",\"surface\"=>\"asphalt\""},"geometry":{"type":"LineString","coordinates":[[121.0625526,14.6241364],[121.0619277,14.6236303]]}},
{"type":"Feature","properties":{"osm_id":"900654881","highway":"service","z_order":0},"geometry":{"type":"LineString","coordinates":[[121.0646806,14.6269204],[121.0646904,14.6270548],[121.0646826,14.6270826],[121.0646421,14.6270976],[121.0641166,14.6271378]]}},
{"type":"Feature","properties":{"osm_id":"900654882","highway":"service","z_order":0},"geometry":{"type":"LineString","coordinates":[[121.0641166,14.6271378],[121.0640998,14.6269813]]}},
{"type":"Feature","properties":{"osm_id":"900654883","highway":"service","z_order":0},"geometry":{"type":"LineString","coordinates":[[121.0641879,14.6278749],[121.0641609,14.6275551],[121.0641466,14.6273305],[121.0641364,14.6272482],[121.0641166,14.6271378]]}},
{"type":"Feature","properties":{"osm_id":"902556517","name":"E. Evangelista Street","highway":"residential","z_order":3,"other_tags":"\"postal_code\"=>\"1109\""},"geometry":{"type":"LineString","coordinates":[[121.0637336,14.6244166],[121.0638475,14.6241938],[121.0641657,14.6234985],[121.0646354,14.6224819],[121.0646621,14.6224737]]}},
{"type":"Feature","properties":{"osm_id":"915513098","highway":"service","z_order":0,"other_tags":"\"access\"=>\"private\",\"service\"=>\"parking_aisle\""},"geometry":{"type":"LineString","coordinates":[[121.0617402,14.6242696],[121.0617075,14.6243149],[121.0615813,14.6245641]]}},
{"type":"Feature","properties":{"osm_id":"925178359","highway":"service","z_order":0,"other_tags":"\"access\"=>\"private\",\"service\"=>\"driveway\""},"geometry":{"type":"LineString","coordinates":[[121.0616973,14.624655],[121.0617201,14.6246563],[121.0617379,14.6246515],[121.0617523,14.6246355],[121.0618455,14.6244409],[121.0618821,14.6243559],[121.0617402,14.6242696]]}},
{"type":"Feature","properties":{"osm_id":"926122532","name":"Ermin Garcia Street","highway":"tertiary","z_order":4,"other_tags":"\"designation\"=>\"national_tertiary_road\",\"lanes\"=>\"2\",\"lit\"=>\"yes\",\"maxheight\"=>\"default\",\"maxspeed\"=>\"40\",\"maxspeed:type\"=>\"PH:urban\",\"shoulder\"=>\"no\",\"sidewalk\"=>\"no\",\"smoothness\"=>\"intermediate\",\"surface\"=>\"asphalt\""},"geometry":{"type":"LineString","coordinates":[[121.0621187,14.6272812],[121.0620623,14.6273771]]}},
{"type":"Feature","properties":{"osm_id":"927626578","highway":"service","z_order":0},"geometry":{"type":"LineString","coordinates":[[121.0645829,14.6242138],[121.0647004,14.6239631]]}},
{"type":"Feature","properties":{"osm_id":"930619304","highway":"service","z_order":0,"other_tags":"\"access\"=>\"private\",\"service\"=>\"parking_aisle\""},"geometry":{"type":"LineString","coordinates":[[121.0613089,14.6256013],[121.0614928,14.6252138]]}},
{"type":"Feature","properties":{"osm_id":"930619305","highway":"service","z_order":0,"other_tags":"\"service\"=>\"driveway\""},"geometry":{"type":"LineString","coordinates":[[121.060946,14.6254355],[121.0610247,14.6254677]]}},
{"type":"Feature","properties":{"osm_id":"930619306","highway":"service","z_order":0,"other_tags":"\"access\"=>\"private\",\"service\"=>\"driveway\""},"geometry":{"type":"LineString","coordinates":[[121.0611706,14.625536],[121.0613089,14.6256013],[121.0613872,14.625641],[121.0614073,14.6256468],[121.0614281,14.6256384]]}},
{"type":"Feature","properties":{"osm_id":"930648852","highway":"service","z_order":0,"other_tags":"\"access\"=>\"destination\""},"geometry":{"type":"LineString","coordinates":[[121.0588411,14.6251372],[121.0589132,14.6251781],[121.0589571,14.625204],[121.059022,14.6252374],[121.0590597,14.6252569],[121.0590636,14.6252705],[121.0590597,14.6252867],[121.0589019,14.6256104]]}},
{"type":"Feature","properties":{"osm_id":"931360970","highway":"service","z_order":0,"other_tags":"\"access\"=>\"private\""},"geometry":{"type":"LineString","coordinates":[[121.060782,14.6244615],[121.0612144,14.6246431]]}},
{"type":"Feature","properties":{"osm_id":"931362505","highway":"service","z_order":0,"other_tags":"\"access\"=>\"private\",\"oneway\"=>\"yes\""},"geometry":{"type":"LineString","coordinates":[[121.0597861,14.624338],[121.0598107,14.6243323],[121.0598396,14.6243401],[121.0605054,14.6246528],[121.0605242,14.6246684],[121.0605347,14.6246876]]}},
{"type":"Feature","properties":{"osm_id":"931362506","highway":"service","z_order":0,"other_tags":"\"access\"=>\"private\",\"oneway\"=>\"yes\""},"geometry":{"type":"LineString","coordinates":[[121.060137,14.625494],[121.0601192,14.6254931],[121.0601011,14.6254885],[121.0594386,14.6252121],[121.0594091,14.6251927],[121.0593858,14.6251527]]}},
{"type":"Feature","properties":{"osm_id":"931362507","highway":"service","z_order":0,"other_tags":"\"access\"=>\"private\",\"oneway\"=>\"yes\""},"geometry":{"type":"LineString","coordinates":[[121.0593858,14.6251527],[121.0593943,14.6251083],[121.0597658,14.6243531],[121.0597861,14.624338]]}},
{"type":"Feature","properties":{"osm_id":"931362508","highway":"service","z_order":0,"other_tags":"\"access\"=>\"private\",\"service\"=>\"driveway\""},"geometry":{"type":"LineString","coordinates":[[121.0603777,14.6253194],[121.0608111,14.62552]]}},
{"type":"Feature","properties":{"osm_id":"931612658","name":"Aurora Boulevard","highway":"primary","z_order":27,"other_tags":"\"bridge\"=>\"yes\",\"cycleway:right\"=>\"lane\",\"lane_markings\"=>\"yes\",\"lanes\"=>\"2\",\"layer\"=>\"1\",\"lit\"=>\"yes\",\"maxspeed\"=>\"60\",\"maxspeed:bus\"=>\"50\",\"maxspeed:hgv\"=>\"50\",\"maxweight\"=>\"10\",\"oneway\"=>\"yes\",\"ref\"=>\"59\",\"sidewalk\"=>\"right\",\"sidewalk:right:surface\"=>\"concrete\",\"smoothness\"=>\"intermediate\",\"source:maxspeed\"=>\"sign\",\"surface\"=>\"asphalt\",\"wikidata\"=>\"Q4822499\""},"geometry":{"type":"LineString","coordinates":[[121.0625685,14.6275003],[121.0626327,14.6275255]]}},
{"type":"Feature","properties":{"osm_id":"931612659","name":"Aurora Boulevard","highway":"primary","z_order":7,"other_tags":"\"cycleway:right\"=>\"lane\",\"lane_markings\"=>\"yes\",\"lanes\"=>\"2\",\"lit\"=>\"yes\",\"maxspeed\"=>\"60\",\"maxspeed:bus\"=>\"50\",\"maxspeed:hgv\"=>\"50\",\"oneway\"=>\"yes\",\"ref\"=>\"59\",\"sidewalk:right\"=>\"yes\",\"sidewalk:right:surface\"=>\"concrete\",\"smoothness\"=>\"intermediate\",\"source:maxspeed\"=>\"sign\",\"surface\"=>\"asphalt\",\"wikidata\"=>\"Q4822499\""},"geometry":{"type":"LineString","coordinates":[[121.0626327,14.6275255],[121.0627342,14.6275618],[121.0629963,14.6276473]]}},
{"type":"Feature","properties":{"osm_id":"931612660","name":"Aurora Boulevard","highway":"primary","z_order":27,"other_tags":"\"bridge\"=>\"yes\",\"cycleway:right\"=>\"lane\",\"lane_markings\"=>\"yes\",\"lanes\"=>\"2\",\"layer\"=>\"1\",\"lit\"=>\"yes\",\"mapillary\"=>\"4120254557995438\",\"maxspeed\"=>\"60\",\"maxspeed:bus\"=>\"50\",\"maxspeed:hgv\"=>\"50\",\"maxweight\"=>\"10\",\"oneway\"=>\"yes\",\"ref\"=>\"59\",\"sidewalk:right\"=>\"yes\",\"sidewalk:right:surface\"=>\"concrete\",\"smoothness\"=>\"intermediate\",\"source:maxspeed\"=>\"sign\",\"surface\"=>\"asphalt\",\"wikidata\"=>\"Q4822499\""},"geometry":{"type":"LineString","coordinates":[[121.0626079,14.6276089],[121.062534,14.6275838]]}},
{"type":"Feature","properties":{"osm_id":"931612661","name":"Aurora Boulevard","highway":"primary","z_order":7,"other_tags":"\"cycleway:right\"=>\"lane\",\"lane_markings\"=>\"yes\",\"lanes\"=>\"2\",\"lit\"=>\"yes\",\"maxspeed\"=>\"60\",\"maxspeed:bus\"=>\"50\",\"maxspeed:hgv\"=>\"50\",\"oneway\"=>\"yes\",\"ref\"=>\"59\",\"sidewalk:right\"=>\"yes\",\"source:maxspeed\"=>\"sign\",\"surface\"=>\"asphalt\",\"wikidata\"=>\"Q4822499\""},"geometry":{"type":"LineString","coordinates":[[121.0632222,14.6277985],[121.0629753,14.6277293],[121.0627392,14.6276532],[121.0626079,14.6276089]]}},
{"type":"Feature","properties":{"osm_id":"933817128","highway":"service","z_order":0,"other_tags":"\"service\"=>\"driveway\""},"geometry":{"type":"LineString","coordinates":[[121.0614044,14.6268451],[121.0614369,14.6267845]]}},
{"type":"Feature","properties":{"osm_id":"933817129","highway":"service","z_order":0,"other_tags":"\"access\"=>\"private\",\"service\"=>\"parking_aisle\""},"geometry":{"type":"LineString","coordinates":[[121.0614928,14.6252138],[121.0613758,14.6251576],[121.0613577,14.6251609],[121.0611706,14.625536]]}},
{"type":"Feature","properties":{"osm_id":"933817130","highway":"service","z_order":0,"other_tags":"\"access\"=>\"private\",\"service\"=>\"driveway\""},"geometry":{"type":"LineString","coordinates":[[121.0610247,14.6254677],[121.0610347,14.6254724]]}},
{"type":"Feature","properties":{"osm_id":"934070130","name":"Aurora Boulevard","highway":"primary","z_order":7,"other_tags":"\"cycleway:right\"=>\"lane\",\"lane_markings\"=>\"yes\",\"lanes\"=>\"2\",\"lit\"=>\"yes\",\"maxspeed\"=>\"60\",\"maxspeed:bus\"=>\"50\",\"maxspeed:hgv\"=>\"50\",\"oneway\"=>\"yes\",\"ref\"=>\"59\",\"sidewalk:right\"=>\"yes\",\"source:maxspeed\"=>\"sign\",\"surface\"=>\"asphalt\",\"wikidata\"=>\"Q4822499\""},"geometry":{"type":"LineString","coordinates":[[121.0638279,14.627904],[121.0632577,14.6278057]]}},
{"type":"Feature","properties":{"osm_id":"934070131","name":"Aurora Boulevard","highway":"primary","z_order":7,"other_tags":"\"cycleway:right\"=>\"lane\",\"lane_markings\"=>\"yes\",\"lanes\"=>\"2\",\"lit\"=>\"yes\",\"maxspeed\"=>\"60\",\"maxspeed:bus\"=>\"50\",\"maxspeed:hgv\"=>\"50\",\"oneway\"=>\"yes\",\"ref\"=>\"59\",\"sidewalk:right\"=>\"yes\",\"source:maxspeed\"=>\"sign\",\"surface\"=>\"asphalt\",\"wikidata\"=>\"Q4822499\""},"geometry":{"type":"LineString","coordinates":[[121.0632396,14.6277159],[121.0632751,14.627723]]}},
{"type":"Feature","properties":{"osm_id":"935708168","highway":"service","z_order":0,"other_tags":"\"smoothness\"=>\"intermediate\",\"surface\"=>\"concrete\""},"geometry":{"type":"LineString","coordinates":[[121.0624972,14.6275675],[121.0624085,14.6277879],[121.0624011,14.6277967],[121.062389,14.627799],[121.0622931,14.6277704],[121.062283,14.6277575],[121.0622817,14.6277445],[121.0623588,14.627506]]}},
{"type":"Feature","properties":{"osm_id":"936438585","name":"20th Avenue","highway":"secondary","z_order":6,"other_tags":"\"bicycle\"=>\"yes\",\"designation\"=>\"national_tertiary_road\",\"lanes\"=>\"4\",\"lit\"=>\"yes\",\"maxspeed\"=>\"40\",\"maxspeed:type\"=>\"PH:urban\",\"postal_code\"=>\"1109\",\"sidewalk\"=>\"both\",\"surface\"=>\"concrete\""},"geometry":{"type":"LineString","coordinates":[[121.0604137,14.6265158],[121.0604418,14.6264571]]}},
{"type":"Feature","properties":{"osm_id":"936438586","name":"Aurora Boulevard","highway":"primary","z_order":7,"other_tags":"\"cycleway:right\"=>\"lane\",\"lane_markings\"=>\"yes\",\"lanes\"=>\"2\",\"lit\"=>\"yes\",\"maxspeed\"=>\"60\",\"maxspeed:bus\"=>\"50\",\"maxspeed:hgv\"=>\"50\",\"oneway\"=>\"yes\",\"ref\"=>\"59\",\"sidewalk\"=>\"right\",\"source:maxspeed\"=>\"sign\",\"surface\"=>\"asphalt\",\"wikidata\"=>\"Q4822499\""},"geometry":{"type":"LineString","coordinates":[[121.0601867,14.6263326],[121.0604418,14.6264571]]}},
{"type":"Feature","properties":{"osm_id":"936438587","name":"Aurora Boulevard","highway":"primary","z_order":7,"other_tags":"\"cycleway:right\"=>\"lane\",\"lane_markings\"=>\"yes\",\"lanes\"=>\"2\",\"lit\"=>\"yes\",\"maxspeed\"=>\"60\",\"maxspeed:bus\"=>\"50\",\"maxspeed:hgv\"=>\"50\",\"oneway\"=>\"yes\",\"ref\"=>\"59\",\"source:maxspeed\"=>\"sign\",\"surface\"=>\"asphalt\",\"wikidata\"=>\"Q4822499\""},"geometry":{"type":"LineString","coordinates":[[121.0603954,14.6265444],[121.0601383,14.6264189]]}},
{"type":"Feature","properties":{"osm_id":"936438588","name":"Aurora Boulevard","highway":"primary","z_order":7,"other_tags":"\"cycleway:right\"=>\"lane\",\"lane_markings\"=>\"yes\",\"lanes\"=>\"2\",\"lit\"=>\"yes\",\"maxspeed\"=>\"60\",\"maxspeed:bus\"=>\"50\",\"maxspeed:hgv\"=>\"50\",\"oneway\"=>\"yes\",\"ref\"=>\"59\",\"sidewalk\"=>\"right\",\"source:maxspeed\"=>\"sign\",\"surface\"=>\"asphalt\",\"wikidata\"=>\"Q4822499\""},"geometry":{"type":"LineString","coordinates":[[121.0572034,14.6248429],[121.0577187,14.6251015],[121.0579215,14.6252039],[121.0580485,14.6252673],[121.0582226,14.625355],[121.0587393,14.6256155],[121.0588685,14.6256807],[121.0589342,14.6257139],[121.0594639,14.6259799],[121.059509,14.6260026],[121.0595286,14.6260124],[121.0598101,14.6261494],[121.0598755,14.6261812],[121.0601867,14.6263326]]}},
{"type":"Feature","properties":{"osm_id":"936580376","name":"Potsdam Street","highway":"tertiary","z_order":4,"other_tags":"\"designation\"=>\"barangay_road\",\"lit\"=>\"yes\",\"maxspeed\"=>\"20\",\"maxspeed:type\"=>\"PH:urban\""},"geometry":{"type":"LineString","coordinates":[[121.0613199,14.6270084],[121.0613666,14.6269233]]}},
{"type":"Feature","properties":{"osm_id":"936583109","highway":"service","z_order":0,"other_tags":"\"access\"=>\"private\",\"service\"=>\"driveway\""},"geometry":{"type":"LineString","coordinates":[[121.0615452,14.6269313],[121.0615977,14.626924],[121.0616514,14.6269296],[121.0616985,14.6269449],[121.0618526,14.6270068],[121.0620016,14.6270787],[121.0621228,14.6271496],[121.0621416,14.6271738],[121.0621469,14.6272043],[121.0621416,14.6272462]]}},
{"type":"Feature","properties":{"osm_id":"936616713","name":"La Salle Street","highway":"residential","z_order":3,"other_tags":"\"bicycle\"=>\"yes\",\"lanes\"=>\"2\",\"lit\"=>\"yes\",\"maxspeed\"=>\"20\",\"postal_code\"=>\"1102\",\"surface\"=>\"concrete\""},"geometry":{"type":"LineString","coordinates":[[121.0594875,14.6260942],[121.0595286,14.6260124]]}},
{"type":"Feature","properties":{"osm_id":"940253992","highway":"service","z_order":0,"other_tags":"\"service\"=>\"driveway\""},"geometry":{"type":"LineString","coordinates":[[121.0598755,14.6261812],[121.0599129,14.6261046]]}},
{"type":"Feature","properties":{"osm_id":"940275625","name":"Aurora Boulevard","highway":"primary","z_order":7,"other_tags":"\"cycleway:right\"=>\"lane\",\"lane_markings\"=>\"yes\",\"lanes\"=>\"2\",\"lit\"=>\"yes\",\"maxspeed\"=>\"60\",\"maxspeed:bus\"=>\"50\",\"maxspeed:hgv\"=>\"50\",\"oneway\"=>\"yes\",\"ref\"=>\"59\",\"sidewalk:right\"=>\"yes\",\"source:maxspeed\"=>\"sign\",\"surface\"=>\"asphalt\",\"turn:lanes\"=>\"slight_left;through|through\",\"wikidata\"=>\"Q4822499\""},"geometry":{"type":"LineString","coordinates":[[121.0629963,14.6276473],[121.0632396,14.6277159]]}},
{"type":"Feature","properties":{"osm_id":"940275626","highway":"service","z_order":0,"other_tags":"\"covered\"=>\"yes\",\"maxheight\"=>\"default\",\"smoothness\"=>\"good\",\"surface\"=>\"concrete\""},"geometry":{"type":"LineString","coordinates":[[121.0609057,14.6265573],[121.0610897,14.626204]]}},
{"type":"Feature","properties":{"osm_id":"940275627","highway":"service","z_order":0},"geometry":{"type":"LineString","coordinates":[[121.0608529,14.6266587],[121.0609057,14.6265573]]}},
{"type":"Feature","properties":{"osm_id":"940337463","name":"Aurora Boulevard","highway":"primary","z_order":7,"other_tags":"\"cycleway:right\"=>\"lane\",\"lane_markings\"=>\"yes\",\"lanes\"=>\"2\",\"lit\"=>\"yes\",\"maxspeed\"=>\"60\",\"maxspeed:bus\"=>\"50\",\"maxspeed:hgv\"=>\"50\",\"oneway\"=>\"yes\",\"ref\"=>\"59\",\"sidewalk:right\"=>\"yes\",\"source:maxspeed\"=>\"sign\",\"surface\"=>\"asphalt\",\"wikidata\"=>\"Q4822499\""},"geometry":{"type":"LineString","coordinates":[[121.0692482,14.6294201],[121.0679441,14.6288207],[121.0678965,14.6287976],[121.0678197,14.6287601],[121.0676556,14.6286847],[121.0672955,14.6285423],[121.0670524,14.6284635],[121.0668214,14.6284114],[121.0665125,14.6283573],[121.066178,14.6283089],[121.0652098,14.6281329],[121.0651845,14.6281298],[121.0647299,14.6280535],[121.0639934,14.6279357],[121.0638279,14.627904]]}},
{"type":"Feature","properties":{"osm_id":"1078018167","highway":"service","z_order":0,"other_tags":"\"access\"=>\"private\""},"geometry":{"type":"LineString","coordinates":[[121.0650813,14.6279177],[121.0649961,14.6271158]]}},
{"type":"Feature","properties":{"osm_id":"1078018168","name":"Aurora Boulevard","highway":"primary","z_order":7,"other_tags":"\"cycleway:right\"=>\"lane\",\"lane_markings\"=>\"yes\",\"lanes\"=>\"2\",\"lit\"=>\"yes\",\"maxspeed\"=>\"60\",\"maxspeed:bus\"=>\"50\",\"maxspeed:hgv\"=>\"50\",\"oneway\"=>\"yes\",\"ref\"=>\"59\",\"sidewalk:right\"=>\"yes\",\"source:maxspeed\"=>\"sign\",\"surface\"=>\"asphalt\",\"wikidata\"=>\"Q4822499\""},"geometry":{"type":"LineString","coordinates":[[121.0632751,14.627723],[121.0635545,14.6277691]]}},
{"type":"Feature","properties":{"osm_id":"1078018169","name":"Aurora Boulevard","highway":"primary","z_order":7,"other_tags":"\"cycleway:right\"=>\"lane\",\"lane_markings\"=>\"yes\",\"lanes\"=>\"2\",\"lit\"=>\"yes\",\"maxspeed\"=>\"60\",\"maxspeed:bus\"=>\"50\",\"maxspeed:hgv\"=>\"50\",\"oneway\"=>\"yes\",\"ref\"=>\"59\",\"sidewalk:right\"=>\"yes\",\"source:maxspeed\"=>\"sign\",\"surface\"=>\"asphalt\",\"wikidata\"=>\"Q4822499\""},"geometry":{"type":"LineString","coordinates":[[121.0632577,14.6278057],[121.0632222,14.6277985]]}},
{"type":"Feature","properties":{"osm_id":"1078018170","name":"Anonas Street","highway":"secondary","z_order":6,"other_tags":"\"designation\"=>\"city_road\",\"foot\"=>\"no\",\"lane_markings\"=>\"yes\",\"lanes\"=>\"2\",\"lit\"=>\"yes\",\"maxspeed\"=>\"30\",\"oneway\"=>\"yes\",\"postal_code\"=>\"1102\",\"surface\"=>\"asphalt\""},"geometry":{"type":"LineString","coordinates":[[121.0632751,14.627723],[121.0632577,14.6278057]]}},
{"type":"Feature","properties":{"osm_id":"1078018171","name":"Anonas Street","highway":"secondary","z_order":6,"other_tags":"\"designation\"=>\"city_road\",\"lane_markings\"=>\"yes\",\"lanes\"=>\"2\",\"lit\"=>\"yes\",\"maxspeed\"=>\"30\",\"oneway\"=>\"yes\",\"postal_code\"=>\"1102\",\"sidewalk:right\"=>\"yes\",\"surface\"=>\"asphalt\""},"geometry":{"type":"LineString","coordinates":[[121.0632577,14.6278057],[121.0632376,14.6279327],[121.0632296,14.6279686],[121.0632064,14.628006]]}},
{"type":"Feature","properties":{"osm_id":"1078018172","name":"Anonas Street","highway":"secondary","z_order":6,"other_tags":"\"designation\"=>\"city_road\",\"lane_markings\"=>\"yes\",\"lanes\"=>\"2\",\"lit\"=>\"yes\",\"maxspeed\"=>\"30\",\"oneway\"=>\"yes\",\"postal_code\"=>\"1102\",\"sidewalk:right\"=>\"yes\",\"surface\"=>\"asphalt\""},"geometry":{"type":"LineString","coordinates":[[121.0632064,14.628006],[121.0631984,14.6279657],[121.063204,14.6279249],[121.0632222,14.6277985]]}},
{"type":"Feature","properties":{"osm_id":"1078018173","highway":"service","z_order":0,"other_tags":"\"service\"=>\"driveway\",\"smoothness\"=>\"intermediate\",\"surface\"=>\"asphalt\""},"geometry":{"type":"LineString","coordinates":[[121.0621416,14.6272462],[121.0621187,14.6272812]]}},
{"type":"Feature","properties":{"osm_id":"1078018174","highway":"service","z_order":0,"other_tags":"\"service\"=>\"driveway\""},"geometry":{"type":"LineString","coordinates":[[121.0615173,14.6269954],[121.0615452,14.6269313]]}},
{"type":"Feature","properties":{"osm_id":"1078282538","highway":"service","z_order":0},"geometry":{"type":"LineString","coordinates":[[121.0639934,14.6279357],[121.0639791,14.6280296]]}},
{"type":"Feature","properties":{"osm_id":"1085311553","highway":"service","z_order":0},"geometry":{"type":"LineString","coordinates":[[121.0606983,14.6259485],[121.0606161,14.6258979]]}},
{"type":"Feature","properties":{"osm_id":"1110678487","highway":"service","z_order":0,"other_tags":"\"access\"=>\"private\",\"lanes\"=>\"1\",\"service\"=>\"driveway\""},"geometry":{"type":"LineString","coordinates":[[121.0630448,14.6264085],[121.0629858,14.6264345],[121.0629583,14.6264508],[121.0629322,14.6264748],[121.0627645,14.6267219]]}},
{"type":"Feature","properties":{"osm_id":"1110678489","highway":"service","z_order":0,"other_tags":"\"access\"=>\"private\",\"lanes\"=>\"1\",\"service\"=>\"driveway\""},"geometry":{"type":"LineString","coordinates":[[121.0629838,14.6262009],[121.0626344,14.6268491]]}},
{"type":"Feature","properties":{"osm_id":"1110678490","highway":"service","z_order":0,"other_tags":"\"access\"=>\"permissive\",\"lanes\"=>\"1\",\"service\"=>\"driveway\""},"geometry":{"type":"LineString","coordinates":[[121.0623639,14.6274017],[121.0625428,14.6270315],[121.0626344,14.6268491]]}},
{"type":"Feature","properties":{"osm_id":"1236490294","highway":"service","z_order":0,"other_tags":"\"access\"=>\"private\",\"service\"=>\"driveway\""},"geometry":{"type":"LineString","coordinates":[[121.0615862,14.6268338],[121.0615452,14.6269313]]}},
{"type":"Feature","properties":{"osm_id":"1236490295","highway":"service","z_order":0,"other_tags":"\"access\"=>\"private\",\"service\"=>\"driveway\""},"geometry":{"type":"LineString","coordinates":[[121.0617274,14.6265546],[121.0615862,14.6268338]]}},
{"type":"Feature","properties":{"osm_id":"1236491324","highway":"service","z_order":0,"other_tags":"\"service\"=>\"driveway\""},"geometry":{"type":"LineString","coordinates":[[121.059509,14.6260026],[121.0595597,14.6258993]]}},
{"type":"Feature","properties":{"osm_id":"1236491325","highway":"service","z_order":0,"other_tags":"\"oneway\"=>\"yes\""},"geometry":{"type":"LineString","coordinates":[[121.0595138,14.6258787],[121.0594639,14.6259799]]}},
{"type":"Feature","properties":{"osm_id":"1236491326","highway":"service","z_order":0,"other_tags":"\"access\"=>\"destination\",\"oneway\"=>\"yes\",\"service\"=>\"driveway\""},"geometry":{"type":"LineString","coordinates":[[121.0598101,14.6261494],[121.0598645,14.6260412]]}},
{"type":"Feature","properties":{"osm_id":"1236491327","highway":"service","z_order":0,"other_tags":"\"access\"=>\"no\",\"service\"=>\"driveway\""},"geometry":{"type":"LineString","coordinates":[[121.0599129,14.6261046],[121.0601537,14.6256116]]}},
{"type":"Feature","properties":{"osm_id":"1236492223","highway":"service","z_order":0,"other_tags":"\"access\"=>\"private\",\"oneway\"=>\"yes\""},"geometry":{"type":"LineString","coordinates":[[121.0605347,14.6246876],[121.0605356,14.6247054],[121.0604871,14.6247916]]}},
{"type":"Feature","properties":{"osm_id":"1236492224","highway":"service","z_order":0,"other_tags":"\"access\"=>\"private\",\"oneway\"=>\"yes\""},"geometry":{"type":"LineString","coordinates":[[121.0604497,14.6248672],[121.0601668,14.6254768],[121.0601551,14.6254872],[121.060137,14.625494]]}},
{"type":"Feature","properties":{"osm_id":"1236492225","highway":"service","z_order":0,"other_tags":"\"access\"=>\"destination\",\"oneway\"=>\"yes\""},"geometry":{"type":"LineString","coordinates":[[121.0606046,14.6248472],[121.0607047,14.6248946]]}},
{"type":"Feature","properties":{"osm_id":"1236492226","highway":"service","z_order":0,"other_tags":"\"access\"=>\"private\",\"oneway\"=>\"yes\""},"geometry":{"type":"LineString","coordinates":[[121.0605719,14.6249235],[121.0604497,14.6248672]]}},
{"type":"Feature","properties":{"osm_id":"1236492227","highway":"service","z_order":0,"other_tags":"\"access\"=>\"destination\",\"oneway\"=>\"no\",\"service\"=>\"driveway\""},"geometry":{"type":"LineString","coordinates":[[121.060643,14.6250129],[121.0605427,14.6249722]]}},
{"type":"Feature","properties":{"osm_id":"1236492228","highway":"service","z_order":0,"other_tags":"\"service\"=>\"driveway\""},"geometry":{"type":"LineString","coordinates":[[121.0608111,14.62552],[121.0608864,14.6255653]]}},
{"type":"Feature","properties":{"osm_id":"1236492229","highway":"service","z_order":0,"other_tags":"\"access\"=>\"private\",\"service\"=>\"driveway\""},"geometry":{"type":"LineString","coordinates":[[121.0610347,14.6254724],[121.0611706,14.625536]]}},
{"type":"Feature","properties":{"osm_id":"1236492230","highway":"service","z_order":0,"other_tags":"\"access\"=>\"private\",\"service\"=>\"parking_aisle\""},"geometry":{"type":"LineString","coordinates":[[121.0614281,14.6256384],[121.0616065,14.6253205],[121.0616112,14.6252978],[121.0616011,14.6252744],[121.0614928,14.6252138]]}},
{"type":"Feature","properties":{"osm_id":"1236492795","highway":"service","z_order":0,"other_tags":"\"access\"=>\"private\",\"service\"=>\"driveway\""},"geometry":{"type":"LineString","coordinates":[[121.0624061,14.6246176],[121.0619365,14.6243827],[121.0618821,14.6243559]]}},
{"type":"Feature","properties":{"osm_id":"1236492796","highway":"service","z_order":0,"other_tags":"\"access\"=>\"private\",\"service\"=>\"driveway\""},"geometry":{"type":"LineString","coordinates":[[121.0617328,14.6241956],[121.0617402,14.6242696]]}},
{"type":"Feature","properties":{"osm_id":"1236492797","highway":"service","z_order":0,"other_tags":"\"access\"=>\"private\""},"geometry":{"type":"LineString","coordinates":[[121.0615813,14.6245641],[121.0615786,14.6245824],[121.061584,14.6245992],[121.0616973,14.624655]]}},
{"type":"Feature","properties":{"osm_id":"1236492798","highway":"service","z_order":0,"other_tags":"\"access\"=>\"private\",\"service\"=>\"driveway\""},"geometry":{"type":"LineString","coordinates":[[121.061672,14.6241414],[121.0617225,14.6241727],[121.0617328,14.6241956]]}},
{"type":"Feature","properties":{"osm_id":"1236492799","highway":"service","z_order":0,"other_tags":"\"service\"=>\"driveway\""},"geometry":{"type":"LineString","coordinates":[[121.0615879,14.6240986],[121.061672,14.6241414]]}},
{"type":"Feature","properties":{"osm_id":"1236745150","name":"Mirasol Street","highway":"residential","z_order":3,"other_tags":"\"lane_markings\"=>\"no\",\"lanes\"=>\"2\",\"lit\"=>\"yes\",\"postal_code\"=>\"1109\",\"sidewalk\"=>\"both\",\"surface\"=>\"asphalt\""},"geometry":{"type":"LineString","coordinates":[[121.0611148,14.6238335],[121.0613238,14.6239317],[121.061609,14.6240535]]}},
{"type":"Feature","properties":{"osm_id":"1236745151","highway":"service","z_order":0,"other_tags":"\"service\"=>\"driveway\""},"geometry":{"type":"LineString","coordinates":[[121.0609289,14.6242135],[121.0610921,14.62388],[121.0611148,14.6238335]]}},
{"type":"Feature","properties":{"osm_id":"1236745155","highway":"service","z_order":0,"other_tags":"\"access\"=>\"private\",\"service\"=>\"driveway\""},"geometry":{"type":"LineString","coordinates":[[121.0600411,14.6241564],[121.0602778,14.623649]]}},
{"type":"Feature","properties":{"osm_id":"1236745158","highway":"service","z_order":0,"other_tags":"\"access\"=>\"private\",\"service\"=>\"driveway\""},"geometry":{"type":"LineString","coordinates":[[121.0604001,14.6242074],[121.0605597,14.6238042],[121.0605593,14.6237832]]}},
{"type":"Feature","properties":{"osm_id":"1237124391","highway":"service","z_order":0,"other_tags":"\"access\"=>\"destination\",\"service\"=>\"driveway\""},"geometry":{"type":"LineString","coordinates":[[121.059022,14.6252374],[121.0590542,14.6251798]]}},
{"type":"Feature","properties":{"osm_id":"1237124392","highway":"service","z_order":0,"other_tags":"\"access\"=>\"private\",\"service\"=>\"driveway\""},"geometry":{"type":"LineString","coordinates":[[121.0591425,14.6244533],[121.0591553,14.6244412],[121.059167,14.6244378],[121.0591757,14.6244397],[121.0591838,14.6244429],[121.0592571,14.6244745],[121.0594802,14.6245878],[121.0595087,14.6246009],[121.0595157,14.6246129],[121.059516,14.6246313]]}},
{"type":"Feature","properties":{"osm_id":"1237124393","highway":"service","z_order":0,"other_tags":"\"access\"=>\"private\",\"service\"=>\"driveway\""},"geometry":{"type":"LineString","coordinates":[[121.0588933,14.6249595],[121.0588941,14.6249416],[121.0591425,14.6244533]]}},
{"type":"Feature","properties":{"osm_id":"1237124394","highway":"service","z_order":0,"other_tags":"\"access\"=>\"private\",\"service\"=>\"parking_aisle\""},"geometry":{"type":"LineString","coordinates":[[121.0593969,14.6241913],[121.0593802,14.6242064],[121.0592571,14.6244745]]}},
{"type":"Feature","properties":{"osm_id":"1237124395","highway":"service","z_order":0,"other_tags":"\"access\"=>\"private\",\"service\"=>\"parking_aisle\""},"geometry":{"type":"LineString","coordinates":[[121.0596055,14.6243018],[121.0595988,14.6242869],[121.0595868,14.6242772],[121.0594151,14.6241941],[121.0593969,14.6241913]]}},
{"type":"Feature","properties":{"osm_id":"1237124396","highway":"service","z_order":0,"other_tags":"\"access\"=>\"private\",\"service\"=>\"parking_aisle\""},"geometry":{"type":"LineString","coordinates":[[121.0594802,14.6245878],[121.0596029,14.6243154],[121.0596055,14.6243018]]}},
{"type":"Feature","properties":{"osm_id":"1237124397","highway":"service","z_order":0,"other_tags":"\"access\"=>\"private\",\"service\"=>\"driveway\""},"geometry":{"type":"LineString","coordinates":[[121.0590916,14.6251128],[121.0590306,14.6250749],[121.0589881,14.625019],[121.0589001,14.6249773],[121.0588933,14.6249595]]}},
{"type":"Feature","properties":{"osm_id":"1237124398","highway":"service","z_order":0,"other_tags":"\"access\"=>\"private\",\"service\"=>\"driveway\""},"geometry":{"type":"LineString","coordinates":[[121.0590542,14.6251798],[121.0590916,14.6251128],[121.059222,14.6251687],[121.0592398,14.6251729],[121.0592564,14.6251709],[121.0592693,14.6251651],[121.0592797,14.6251544],[121.059516,14.6246313]]}},
{"type":"Feature","properties":{"osm_id":"1289742951","highway":"service","z_order":0},"geometry":{"type":"LineString","coordinates":[[121.0618872,14.6278816],[121.0618549,14.6278668]]}},
{"type":"Feature","properties":{"osm_id":"1290976377","highway":"service","z_order":0},"geometry":{"type":"LineString","coordinates":[[121.0612144,14.6246431],[121.0613094,14.6246841]]}},
{"type":"Feature","properties":{"osm_id":"1291381261","highway":"footway","z_order":0,"other_tags":"\"motorcycle\"=>\"yes\""},"geometry":{"type":"LineString","coordinates":[[121.0645504,14.6248815],[121.0649163,14.6243552]]}},
{"type":"Feature","properties":{"osm_id":"1292182300","highway":"service","z_order":0,"other_tags":"\"access\"=>\"private\""},"geometry":{"type":"LineString","coordinates":[[121.0606161,14.6258979],[121.0604545,14.6257935],[121.060423,14.6257727],[121.0603881,14.6257636],[121.060366,14.6257597],[121.0603452,14.6257656],[121.0603311,14.6257928],[121.0603304,14.6258149],[121.0603318,14.6258311],[121.0603438,14.6258538],[121.0603599,14.625872],[121.0605732,14.6259855]]}},
{"type":"Feature","properties":{"osm_id":"1292194932","highway":"footway","z_order":0},"geometry":{"type":"LineString","coordinates":[[121.0611995,14.6269517],[121.0612432,14.6268597]]}},
{"type":"Feature","properties":{"osm_id":"1292194933","highway":"footway","z_order":0},"geometry":{"type":"LineString","coordinates":[[121.0614077,14.6270521],[121.0614448,14.6269592]]}},
{"type":"Feature","properties":{"osm_id":"1293102592","highway":"footway","z_order":0,"other_tags":"\"motorcycle\"=>\"yes\""},"geometry":{"type":"LineString","coordinates":[[121.0634639,14.6253367],[121.0631226,14.6253406]]}},
{"type":"Feature","properties":{"osm_id":"1395600322","name":"20th Avenue","highway":"secondary","z_order":6,"other_tags":"\"bicycle\"=>\"yes\",\"designation\"=>\"national_tertiary_road\",\"lane_markings\"=>\"yes\",\"lanes\"=>\"4\",\"lit\"=>\"yes\",\"maxspeed\"=>\"40\",\"maxspeed:type\"=>\"PH:urban\",\"postal_code\"=>\"1109\",\"sidewalk\"=>\"both\",\"surface\"=>\"concrete\""},"geometry":{"type":"LineString","coordinates":[[121.061609,14.6240535],[121.0616729,14.6239244],[121.0618202,14.6236145],[121.0618415,14.6235721],[121.0618619,14.6235229],[121.0619882,14.6232536]]}},
{"type":"Feature","properties":{"osm_id":"1427344322","highway":"service","z_order":0},"geometry":{"type":"LineString","coordinates":[[121.0590415,14.6269892],[121.0590128,14.6269769],[121.0588284,14.626901]]}},
{"type":"Feature","properties":{"osm_id":"1428276826","highway":"service","z_order":0},"geometry":{"type":"LineString","coordinates":[[121.0605732,14.6259855],[121.0606584,14.6260307]]}},
{"type":"Feature","properties":{"osm_id":"1428276834","highway":"service","z_order":0},"geometry":{"type":"LineString","coordinates":[[121.0625428,14.6270315],[121.0623977,14.6269425]]}},
{"type":"Feature","properties":{"osm_id":"1428285961","highway":"service","z_order":0},"geometry":{"type":"LineString","coordinates":[[121.0635146,14.627484],[121.0635464,14.6274493]]}},
{"type":"Feature","properties":{"osm_id":"1428285962","highway":"service","z_order":0},"geometry":{"type":"LineString","coordinates":[[121.0635464,14.6274493],[121.0636208,14.6273714],[121.0636476,14.6273176],[121.0636631,14.6272429]]}},
{"type":"Feature","properties":{"osm_id":"1432747492","highway":"service","z_order":0},"geometry":{"type":"LineString","coordinates":[[121.0618549,14.6278668],[121.0616649,14.6277698]]}},
{"type":"Feature","properties":{"osm_id":"1477341310","name":"Illinois Street","highway":"residential","z_order":3,"other_tags":"\"bicycle\"=>\"yes\",\"lanes\"=>\"2\",\"postal_code\"=>\"1102\""},"geometry":{"type":"LineString","coordinates":[[121.0601383,14.6264189],[121.0599656,14.6267434]]}}
]
}
